{
  "type": "FeatureCollection",
  "features": [
    {
      "type": "Feature",
      "properties": {
        "norad_id": 31311,
        "name": "FENGYUN 1C DEB",
        "group": "fengyun-1c-debris",
        "lat": 74.10749129370171,
        "lon": 27.905870475733632,
        "alt_km": 773.6997413425088,
        "timestamp": "2025-12-05T20:43:02.336743+00:00",
        "meta_object_name": "FENGYUN 1C DEB",
        "meta_object_id": "1999-025BPP",
        "meta_epoch": "2025-12-05T05:31:31.137600",
        "meta_mean_motion": 14.29642989,
        "meta_eccentricity": 0.00193914,
        "meta_inclination": 98.8537,
        "meta_ra_of_asc_node": 60.455,
        "meta_arg_of_pericenter": 108.4028,
        "meta_mean_anomaly": 312.4452,
        "meta_ephemeris_type": 0,
        "meta_classification_type": "U",
        "meta_norad_cat_id": 31311,
        "meta_element_set_no": 999,
        "meta_rev_at_epoch": 96114,
        "meta_bstar": 0.0036208483,
        "meta_mean_motion_dot": 9.26e-05,
        "meta_mean_motion_ddot": 0,
        "tle_line1": "1 31311U 99025BPP 25339.23022150  .00009260  00000+0  36208-2 0  9998",
        "tle_line2": "2 31311  98.8537  60.4550 0019391 108.4028 312.4452 14.29642989961143"
      },
      "geometry": {
        "type": "Point",
        "coordinates": [
          27.905870475733632,
          74.10749129370171
        ]
      }
    },
    {
      "type": "Feature",
      "properties": {
        "norad_id": 31312,
        "name": "FENGYUN 1C DEB",
        "group": "fengyun-1c-debris",
        "lat": -51.26162326299857,
        "lon": 134.53126772234774,
        "alt_km": 858.80272827724,
        "timestamp": "2025-12-05T20:43:02.336753+00:00",
        "meta_object_name": "FENGYUN 1C DEB",
        "meta_object_id": "1999-025BPQ",
        "meta_epoch": "2025-12-01T11:40:09.596352",
        "meta_mean_motion": 14.00893121,
        "meta_eccentricity": 0.00581856,
        "meta_inclination": 98.8574,
        "meta_ra_of_asc_node": 321.4953,
        "meta_arg_of_pericenter": 267.9693,
        "meta_mean_anomaly": 222.3029,
        "meta_ephemeris_type": 0,
        "meta_classification_type": "U",
        "meta_norad_cat_id": 31312,
        "meta_element_set_no": 999,
        "meta_rev_at_epoch": 94988,
        "meta_bstar": 0.00061208287,
        "meta_mean_motion_dot": 8.85e-06,
        "meta_mean_motion_ddot": 0,
        "tle_line1": "1 31312U 99025BPQ 25335.48622218  .00000885  00000+0  61208-3 0  9996",
        "tle_line2": "2 31312  98.8574 321.4953 0058185 267.9693 222.3029 14.00893121949886"
      },
      "geometry": {
        "type": "Point",
        "coordinates": [
          134.53126772234774,
          -51.26162326299857
        ]
      }
    },
    {
      "type": "Feature",
      "properties": {
        "norad_id": 31313,
        "name": "FENGYUN 1C DEB",
        "group": "fengyun-1c-debris",
        "lat": 69.0537582495002,
        "lon": 88.09489287954328,
        "alt_km": 811.997322616161,
        "timestamp": "2025-12-05T20:43:02.336763+00:00",
        "meta_object_name": "FENGYUN 1C DEB",
        "meta_object_id": "1999-025BPR",
        "meta_epoch": "2025-12-05T05:00:28.756224",
        "meta_mean_motion": 14.22258211,
        "meta_eccentricity": 0.00441977,
        "meta_inclination": 99.0148,
        "meta_ra_of_asc_node": 242.9241,
        "meta_arg_of_pericenter": 202.9154,
        "meta_mean_anomaly": 157.0051,
        "meta_ephemeris_type": 0,
        "meta_classification_type": "U",
        "meta_norad_cat_id": 31313,
        "meta_element_set_no": 999,
        "meta_rev_at_epoch": 96955,
        "meta_bstar": 0.00053562898,
        "meta_mean_motion_dot": 1.155e-05,
        "meta_mean_motion_ddot": 0,
        "tle_line1": "1 31313U 99025BPR 25339.20866616  .00001155  00000+0  53563-3 0  9999",
        "tle_line2": "2 31313  99.0148 242.9241 0044197 202.9154 157.0051 14.22258211969557"
      },
      "geometry": {
        "type": "Point",
        "coordinates": [
          88.09489287954328,
          69.0537582495002
        ]
      }
    },
    {
      "type": "Feature",
      "properties": {
        "norad_id": 31314,
        "name": "FENGYUN 1C DEB",
        "group": "fengyun-1c-debris",
        "lat": -46.71118522512192,
        "lon": 144.5745119688438,
        "alt_km": 932.885910455313,
        "timestamp": "2025-12-05T20:43:02.336773+00:00",
        "meta_object_name": "FENGYUN 1C DEB",
        "meta_object_id": "1999-025BPS",
        "meta_epoch": "2025-12-04T06:02:04.117920",
        "meta_mean_motion": 14.0491099,
        "meta_eccentricity": 0.0079252,
        "meta_inclination": 98.8219,
        "meta_ra_of_asc_node": 332.4967,
        "meta_arg_of_pericenter": 21.1636,
        "meta_mean_anomaly": 339.278,
        "meta_ephemeris_type": 0,
        "meta_classification_type": "U",
        "meta_norad_cat_id": 31314,
        "meta_element_set_no": 999,
        "meta_rev_at_epoch": 60695,
        "meta_bstar": 0.00048284,
        "meta_mean_motion_dot": 7.55e-06,
        "meta_mean_motion_ddot": 0,
        "tle_line1": "1 31314U 99025BPS 25338.25143655  .00000755  00000+0  48284-3 0  9994",
        "tle_line2": "2 31314  98.8219 332.4967 0079252  21.1636 339.2780 14.04910990606954"
      },
      "geometry": {
        "type": "Point",
        "coordinates": [
          144.5745119688438,
          -46.71118522512192
        ]
      }
    },
    {
      "type": "Feature",
      "properties": {
        "norad_id": 31319,
        "name": "FENGYUN 1C DEB",
        "group": "fengyun-1c-debris",
        "lat": 81.16382469069445,
        "lon": 149.39214583576884,
        "alt_km": 850.0171651739765,
        "timestamp": "2025-12-05T20:43:02.336783+00:00",
        "meta_object_name": "FENGYUN 1C DEB",
        "meta_object_id": "1999-025BPX",
        "meta_epoch": "2025-12-04T11:59:12.130080",
        "meta_mean_motion": 13.75824314,
        "meta_eccentricity": 0.0170553,
        "meta_inclination": 98.8308,
        "meta_ra_of_asc_node": 237.9087,
        "meta_arg_of_pericenter": 108.8006,
        "meta_mean_anomaly": 70.5718,
        "meta_ephemeris_type": 0,
        "meta_classification_type": "U",
        "meta_norad_cat_id": 31319,
        "meta_element_set_no": 999,
        "meta_rev_at_epoch": 93574,
        "meta_bstar": 0.000307,
        "meta_mean_motion_dot": 2.92e-06,
        "meta_mean_motion_ddot": 0,
        "tle_line1": "1 31319U 99025BPX 25338.49944595  .00000292  00000+0  30700-3 0  9997",
        "tle_line2": "2 31319  98.8308 237.9087 0170553 108.8006  70.5718 13.75824314935749"
      },
      "geometry": {
        "type": "Point",
        "coordinates": [
          149.39214583576884,
          81.16382469069445
        ]
      }
    },
    {
      "type": "Feature",
      "properties": {
        "norad_id": 31321,
        "name": "FENGYUN 1C DEB",
        "group": "fengyun-1c-debris",
        "lat": 16.72924807366054,
        "lon": -118.46044710503087,
        "alt_km": 829.3596354337342,
        "timestamp": "2025-12-05T20:43:02.336793+00:00",
        "meta_object_name": "FENGYUN 1C DEB",
        "meta_object_id": "1999-025BPZ",
        "meta_epoch": "2025-11-28T23:11:37.489632",
        "meta_mean_motion": 14.13809948,
        "meta_eccentricity": 0.00293651,
        "meta_inclination": 98.7348,
        "meta_ra_of_asc_node": 52.1537,
        "meta_arg_of_pericenter": 217.1862,
        "meta_mean_anomaly": 142.7277,
        "meta_ephemeris_type": 0,
        "meta_classification_type": "U",
        "meta_norad_cat_id": 31321,
        "meta_element_set_no": 999,
        "meta_rev_at_epoch": 57189,
        "meta_bstar": 0.00017233355,
        "meta_mean_motion_dot": 2.84e-06,
        "meta_mean_motion_ddot": 0,
        "tle_line1": "1 31321U 99025BPZ 25332.96640613  .00000284  00000+0  17233-3 0  9997",
        "tle_line2": "2 31321  98.7348  52.1537 0029365 217.1862 142.7277 14.13809948571893"
      },
      "geometry": {
        "type": "Point",
        "coordinates": [
          -118.46044710503087,
          16.72924807366054
        ]
      }
    },
    {
      "type": "Feature",
      "properties": {
        "norad_id": 31322,
        "name": "FENGYUN 1C DEB",
        "group": "fengyun-1c-debris",
        "lat": 47.7179622419485,
        "lon": -126.10009215591519,
        "alt_km": 1019.7466647853853,
        "timestamp": "2025-12-05T20:43:02.336803+00:00",
        "meta_object_name": "FENGYUN 1C DEB",
        "meta_object_id": "1999-025BQA",
        "meta_epoch": "2025-12-02T09:57:05.346144",
        "meta_mean_motion": 13.72990391,
        "meta_eccentricity": 0.0239007,
        "meta_inclination": 98.5749,
        "meta_ra_of_asc_node": 41.2566,
        "meta_arg_of_pericenter": 37.8458,
        "meta_mean_anomaly": 334.6813,
        "meta_ephemeris_type": 0,
        "meta_classification_type": "U",
        "meta_norad_cat_id": 31322,
        "meta_element_set_no": 999,
        "meta_rev_at_epoch": 62134,
        "meta_bstar": 0.00025402374,
        "meta_mean_motion_dot": 2.51e-06,
        "meta_mean_motion_ddot": 0,
        "tle_line1": "1 31322U 99025BQA 25336.41464521  .00000251  00000+0  25402-3 0  9995",
        "tle_line2": "2 31322  98.5749  41.2566 0239007  37.8458 334.6813 13.72990391621343"
      },
      "geometry": {
        "type": "Point",
        "coordinates": [
          -126.10009215591519,
          47.7179622419485
        ]
      }
    }
  ]
}